{
  "type": "FeatureCollection",
  "features": [
    {
      "type": "Feature",
      "properties": {
        "norad_id": 43823,
        "name": "GEO-KOMPSAT-2A",
        "group": "weather",
        "lat": -0.005209200635646674,
        "lon": -149.9461803428998,
        "alt_km": 35787.72754299395,
        "timestamp": "2025-12-18T23:35:48.689058+00:00",
        "meta_object_name": "GEO-KOMPSAT-2A",
        "meta_object_id": "2018-100A",
        "meta_epoch": "2025-12-18T13:54:15.674976",
        "meta_mean_motion": 1.00270279,
        "meta_eccentricity": 5.687e-05,
        "meta_inclination": 0.0447,
        "meta_ra_of_asc_node": 154.2273,
        "meta_arg_of_pericenter": 297.0324,
        "meta_mean_anomaly": 333.0163,
        "meta_ephemeris_type": 0,
        "meta_classification_type": "U",
        "meta_norad_cat_id": 43823,
        "meta_element_set_no": 999,
        "meta_rev_at_epoch": 2581,
        "meta_bstar": 0,
        "meta_mean_motion_dot": -3.19e-06,
        "meta_mean_motion_ddot": 0,
        "tle_line1": "1 43823U 18100A   25352.57934809 -.00000319  00000+0  00000+0 0  9994",
        "tle_line2": "2 43823   0.0447 154.2273 0000568 297.0324 333.0163  1.00270279 25810"
      },
      "geometry": {
        "type": "Point",
        "coordinates": [
          -149.9461803428998,
          -0.005209200635646674
        ]
      }
    },
    {
      "type": "Feature",
      "properties": {
        "norad_id": 44387,
        "name": "METEOR-M2 2",
        "group": "weather",
        "lat": -29.64536310180077,
        "lon": -22.09694532001561,
        "alt_km": 817.7491248021797,
        "timestamp": "2025-12-18T23:35:48.689069+00:00",
        "meta_object_name": "METEOR-M2 2",
        "meta_object_id": "2019-038A",
        "meta_epoch": "2025-12-18T15:18:27.656640",
        "meta_mean_motion": 14.24294831,
        "meta_eccentricity": 0.00014724,
        "meta_inclination": 98.8967,
        "meta_ra_of_asc_node": 332.439,
        "meta_arg_of_pericenter": 135.1732,
        "meta_mean_anomaly": 224.9565,
        "meta_ephemeris_type": 0,
        "meta_classification_type": "U",
        "meta_norad_cat_id": 44387,
        "meta_element_set_no": 999,
        "meta_rev_at_epoch": 33559,
        "meta_bstar": 0.0001649526,
        "meta_mean_motion_dot": 3.35e-06,
        "meta_mean_motion_ddot": 0,
        "tle_line1": "1 44387U 19038A   25352.63782010  .00000335  00000+0  16495-3 0  9999",
        "tle_line2": "2 44387  98.8967 332.4390 0001472 135.1732 224.9565 14.24294831335591"
      },
      "geometry": {
        "type": "Point",
        "coordinates": [
          -22.09694532001561,
          -29.64536310180077
        ]
      }
    },
    {
      "type": "Feature",
      "properties": {
        "norad_id": 47719,
        "name": "ARKTIKA-M 1",
        "group": "weather",
        "lat": 32.40340411324948,
        "lon": -115.52911131391511,
        "alt_km": 15810.287930822691,
        "timestamp": "2025-12-18T23:35:48.689093+00:00",
        "meta_object_name": "ARKTIKA-M 1",
        "meta_object_id": "2021-016A",
        "meta_epoch": "2025-12-18T01:24:39.137184",
        "meta_mean_motion": 2.00630666,
        "meta_eccentricity": 0.72069203,
        "meta_inclination": 63.1752,
        "meta_ra_of_asc_node": 83.2669,
        "meta_arg_of_pericenter": 269.1449,
        "meta_mean_anomaly": 15.5709,
        "meta_ephemeris_type": 0,
        "meta_classification_type": "U",
        "meta_norad_cat_id": 47719,
        "meta_element_set_no": 999,
        "meta_rev_at_epoch": 3515,
        "meta_bstar": 0,
        "meta_mean_motion_dot": -1.26e-06,
        "meta_mean_motion_ddot": 0,
        "tle_line1": "1 47719U 21016A   25352.05878631 -.00000126  00000+0  00000+0 0  9991",
        "tle_line2": "2 47719  63.1752  83.2669 7206920 269.1449  15.5709  2.00630666 35159"
      },
      "geometry": {
        "type": "Point",
        "coordinates": [
          -115.52911131391511,
          32.40340411324948
        ]
      }
    },
    {
      "type": "Feature",
      "properties": {
        "norad_id": 49008,
        "name": "FENGYUN 3E",
        "group": "weather",
        "lat": -10.211630312342987,
        "lon": 171.84123465087015,
        "alt_km": 829.5235906495336,
        "timestamp": "2025-12-18T23:35:48.689105+00:00",
        "meta_object_name": "FENGYUN 3E",
        "meta_object_id": "2021-062A",
        "meta_epoch": "2025-12-18T14:14:51.302112",
        "meta_mean_motion": 14.19880331,
        "meta_eccentricity": 6.299e-05,
        "meta_inclination": 98.7471,
        "meta_ra_of_asc_node": 353.0456,
        "meta_arg_of_pericenter": 224.8819,
        "meta_mean_anomaly": 135.2306,
        "meta_ephemeris_type": 0,
        "meta_classification_type": "U",
        "meta_norad_cat_id": 49008,
        "meta_element_set_no": 999,
        "meta_rev_at_epoch": 23095,
        "meta_bstar": -2.8232872e-05,
        "meta_mean_motion_dot": -1.04e-06,
        "meta_mean_motion_ddot": 0,
        "tle_line1": "1 49008U 21062A   25352.59364933 -.00000104  00000+0 -28233-4 0  9999",
        "tle_line2": "2 49008  98.7471 353.0456 0000629 224.8819 135.2306 14.19880331230953"
      },
      "geometry": {
        "type": "Point",
        "coordinates": [
          171.84123465087015,
          -10.211630312342987
        ]
      }
    },
    {
      "type": "Feature",
      "properties": {
        "norad_id": 51850,
        "name": "GOES 18",
        "group": "weather",
        "lat": 0.005128782984110471,
        "lon": -55.21850894596783,
        "alt_km": 35784.10485109413,
        "timestamp": "2025-12-18T23:35:48.689116+00:00",
        "meta_object_name": "GOES 18",
        "meta_object_id": "2022-021A",
        "meta_epoch": "2025-12-18T14:21:20.581632",
        "meta_mean_motion": 1.00272589,
        "meta_eccentricity": 4.773e-05,
        "meta_inclination": 0.02,
        "meta_ra_of_asc_node": 169.2606,
        "meta_arg_of_pericenter": 166.8053,
        "meta_mean_anomaly": 189.7318,
        "meta_ephemeris_type": 0,
        "meta_classification_type": "U",
        "meta_norad_cat_id": 51850,
        "meta_element_set_no": 999,
        "meta_rev_at_epoch": 478,
        "meta_bstar": 0,
        "meta_mean_motion_dot": 1.22e-06,
        "meta_mean_motion_ddot": 0,
        "tle_line1": "1 51850U 22021A   25352.59815488  .00000122  00000+0  00000+0 0  9994",
        "tle_line2": "2 51850   0.0200 169.2606 0000477 166.8053 189.7318  1.00272589  4780"
      },
      "geometry": {
        "type": "Point",
        "coordinates": [
          -55.21850894596783,
          0.005128782984110471
        ]
      }
    },
    {
      "type": "Feature",
      "properties": {
        "norad_id": 54234,
        "name": "NOAA 21 (JPSS-2)",
        "group": "weather",
        "lat": -8.674200319917318,
        "lon": 107.86777125680183,
        "alt_km": 832.2885721744569,
        "timestamp": "2025-12-18T23:35:48.689127+00:00",
        "meta_object_name": "NOAA 21 (JPSS-2)",
        "meta_object_id": "2022-150A",
        "meta_epoch": "2025-12-18T14:15:09.662976",
        "meta_mean_motion": 14.19525804,
        "meta_eccentricity": 0.00019717,
        "meta_inclination": 98.7469,
        "meta_ra_of_asc_node": 288.8292,
        "meta_arg_of_pericenter": 26.507,
        "meta_mean_anomaly": 333.6206,
        "meta_ephemeris_type": 0,
        "meta_classification_type": "U",
        "meta_norad_cat_id": 54234,
        "meta_element_set_no": 999,
        "meta_rev_at_epoch": 16092,
        "meta_bstar": 4.3732753e-05,
        "meta_mean_motion_dot": 4.8e-07,
        "meta_mean_motion_ddot": 0,
        "tle_line1": "1 54234U 22150A   25352.59386184  .00000048  00000+0  43733-4 0  9994",
        "tle_line2": "2 54234  98.7469 288.8292 0001971  26.5070 333.6206 14.19525804160920"
      },
      "geometry": {
        "type": "Point",
        "coordinates": [
          107.86777125680183,
          -8.674200319917318
        ]
      }
    },
    {
      "type": "Feature",
      "properties": {
        "norad_id": 54743,
        "name": "METEOSAT-12 (MTG-I1)",
        "group": "weather",
        "lat": 0.6076686273841002,
        "lon": 81.47851270949728,
        "alt_km": 35792.70169548116,
        "timestamp": "2025-12-18T23:35:48.689139+00:00",
        "meta_object_name": "METEOSAT-12 (MTG-I1)",
        "meta_object_id": "2022-170C",
        "meta_epoch": "2025-12-18T08:09:24.946848",
        "meta_mean_motion": 1.00270289,
        "meta_eccentricity": 0.0001489,
        "meta_inclination": 0.6927,
        "meta_ra_of_asc_node": 24.5416,
        "meta_arg_of_pericenter": 239.3697,
        "meta_mean_anomaly": 305.3496,
        "meta_ephemeris_type": 0,
        "meta_classification_type": "U",
        "meta_norad_cat_id": 54743,
        "meta_element_set_no": 999,
        "meta_rev_at_epoch": 1116,
        "meta_bstar": 0,
        "meta_mean_motion_dot": 1.7e-07,
        "meta_mean_motion_ddot": 0,
        "tle_line1": "1 54743U 22170C   25352.33987207  .00000017  00000+0  00000+0 0  9997",
        "tle_line2": "2 54743   0.6927  24.5416 0001489 239.3697 305.3496  1.00270289 11160"
      },
      "geometry": {
        "type": "Point",
        "coordinates": [
          81.47851270949728,
          0.6076686273841002
        ]
      }
    }
  ]
}